KUIPER-00247            
1 67152U 25301V   26088.16668981 -.00644943  00000+0 -40414-1 0  9996
2 67152  51.8879 333.2195 0011426 128.8873 212.3346 15.11135192  4686
KUIPER-00248            
1 67153U 25301W   26088.07112389  .00041760  00000+0  10976-2 0  9990
2 67153  51.8703 331.8322 0010371 112.2624 247.9463 15.38131578 16880
KUIPER-00249            
1 67154U 25301X   26088.16668981  .00049918  00000+0  23079-2 0  9996
2 67154  51.8759 331.7280 0006533 125.5478 178.2937 15.19659245  4292
KUIPER-00250            
1 67155U 25301Y   26088.09276551  .00003050  00000+0  46448-3 0  9990
2 67155  51.9016 344.3616 0001452 130.8390 229.2697 14.76476148 16575
KUIPER-00251            
1 67156U 25301Z   26088.16668981 -.00797792  00000+0 -56255-1 0  9991
2 67156  51.8936 332.9975 0008807 121.7749 254.8033 15.07008281  4046
KUIPER-00252            
1 67157U 25301AA  26088.16668981 -.00887115  00000+0 -81602-1 0  9995
2 67157  51.9117 334.4769 0006918 137.9573 320.1426 14.97330737  5510
KUIPER-00261            
1 67158U 25301AB  26088.15573303  .00004201  00000+0  62784-3 0  9995
2 67158  51.9043 344.4228 0002278  42.6515 317.4622 14.76501755 16542
KUIPER-00265            
1 67159U 25301AC  26088.05218565  .00005756  00000+0  78298-3 0  9994
2 67159  51.9043 359.9962 0001189  94.8813 265.2286 14.79959918 16355
KUIPER-00159            
1 67764U 26030A   26088.08399002  .00008120  00000+0  23537-3 0  9999
2 67764  51.8854 125.5847 0005991  95.0451 265.1219 15.36437673  8079
KUIPER-00160            
1 67765U 26030B   26087.82784042  .00028783  00000+0  80897-3 0  9992
2 67765  51.8826 126.8486 0005793 107.4961 252.6659 15.36272224  8030
KUIPER-00177            
1 67766U 26030C   26088.16668981 -.00000494  00000+0 -19586-4 0  9993
2 67766  51.8974 127.4675 0005458  97.9464 221.5992 14.97776085  5785
KUIPER-00178            
1 67767U 26030D   26088.16668981  .00001352  00000+0  96392-4 0  9996
2 67767  51.8867 126.7618 0008541 108.4756 317.7336 15.11460295  3793
KUIPER-00180            
1 67768U 26030E   26088.07784146 -.00040683  00000+0 -14196-2 0  9991
2 67768  51.8814 126.9878 0016988 126.5298 233.7252 15.28839278  8059
KUIPER-00197            
1 67769U 26030F   26087.80638418  .00031080  00000+0  85246-3 0  9996
2 67769  51.8836 126.7206 0002671  78.8970 281.2317 15.37002751  8033
KUIPER-00198            
1 67770U 26030G   26088.07560163  .00037036  00000+0  10223-2 0  9998
2 67770  51.8814 125.5155 0004472  90.3569 269.7930 15.36714489  8078
KUIPER-00199            
1 67771U 26030H   26088.12490950  .00040000  00000+0  11671-2 0  9994
2 67771  51.8808 125.8291 0011664 121.0256 239.1876 15.34889276  8077
KUIPER-00200            
1 67772U 26030J   26088.11229889  .00037301  00000+0  99771-3 0  9993
2 67772  51.8806 125.0180 0001761  19.2309 340.8744 15.37693296  8082
