[{"OBJECT_NAME":"KUIPER-00247","OBJECT_ID":"2025-301V","EPOCH":"2026-03-29T04:00:01.999584","MEAN_MOTION":15.11135192,"ECCENTRICITY":0.0011426,"INCLINATION":51.8879,"RA_OF_ASC_NODE":333.2195,"ARG_OF_PERICENTER":128.8873,"MEAN_ANOMALY":212.3346,"EPHEMERIS_TYPE":0,"CLASSIFICATION_TYPE":"U","NORAD_CAT_ID":67152,"ELEMENT_SET_NO":999,"REV_AT_EPOCH":468,"BSTAR":-0.040414,"MEAN_MOTION_DOT":-0.00644943,"MEAN_MOTION_DDOT":0},{"OBJECT_NAME":"KUIPER-00248","OBJECT_ID":"2025-301W","EPOCH":"2026-03-29T01:42:25.104096","MEAN_MOTION":15.38131578,"ECCENTRICITY":0.0010371,"INCLINATION":51.8703,"RA_OF_ASC_NODE":331.8322,"ARG_OF_PERICENTER":112.2624,"MEAN_ANOMALY":247.9463,"EPHEMERIS_TYPE":0,"CLASSIFICATION_TYPE":"U","NORAD_CAT_ID":67153,"ELEMENT_SET_NO":999,"REV_AT_EPOCH":1688,"BSTAR":0.0010976,"MEAN_MOTION_DOT":0.0004176,"MEAN_MOTION_DDOT":0},{"OBJECT_NAME":"KUIPER-00249","OBJECT_ID":"2025-301X","EPOCH":"2026-03-29T04:00:01.999584","MEAN_MOTION":15.19659245,"ECCENTRICITY":0.0006533,"INCLINATION":51.8759,"RA_OF_ASC_NODE":331.728,"ARG_OF_PERICENTER":125.5478,"MEAN_ANOMALY":178.2937,"EPHEMERIS_TYPE":0,"CLASSIFICATION_TYPE":"U","NORAD_CAT_ID":67154,"ELEMENT_SET_NO":999,"REV_AT_EPOCH":429,"BSTAR":0.0023079,"MEAN_MOTION_DOT":0.00049918,"MEAN_MOTION_DDOT":0},{"OBJECT_NAME":"KUIPER-00250","OBJECT_ID":"2025-301Y","EPOCH":"2026-03-29T02:13:34.940064","MEAN_MOTION":14.76476148,"ECCENTRICITY":0.0001452,"INCLINATION":51.9016,"RA_OF_ASC_NODE":344.3616,"ARG_OF_PERICENTER":130.839,"MEAN_ANOMALY":229.2697,"EPHEMERIS_TYPE":0,"CLASSIFICATION_TYPE":"U","NORAD_CAT_ID":67155,"ELEMENT_SET_NO":999,"REV_AT_EPOCH":1657,"BSTAR":0.00046448,"MEAN_MOTION_DOT":3.05e-5,"MEAN_MOTION_DDOT":0},{"OBJECT_NAME":"KUIPER-00251","OBJECT_ID":"2025-301Z","EPOCH":"2026-03-29T04:00:01.999584","MEAN_MOTION":15.07008281,"ECCENTRICITY":0.0008807,"INCLINATION":51.8936,"RA_OF_ASC_NODE":332.9975,"ARG_OF_PERICENTER":121.7749,"MEAN_ANOMALY":254.8033,"EPHEMERIS_TYPE":0,"CLASSIFICATION_TYPE":"U","NORAD_CAT_ID":67156,"ELEMENT_SET_NO":999,"REV_AT_EPOCH":404,"BSTAR":-0.056255,"MEAN_MOTION_DOT":-0.00797792,"MEAN_MOTION_DDOT":0},{"OBJECT_NAME":"KUIPER-00252","OBJECT_ID":"2025-301AA","EPOCH":"2026-03-29T04:00:01.999584","MEAN_MOTION":14.97330737,"ECCENTRICITY":0.0006918,"INCLINATION":51.9117,"RA_OF_ASC_NODE":334.4769,"ARG_OF_PERICENTER":137.9573,"MEAN_ANOMALY":320.1426,"EPHEMERIS_TYPE":0,"CLASSIFICATION_TYPE":"U","NORAD_CAT_ID":67157,"ELEMENT_SET_NO":999,"REV_AT_EPOCH":551,"BSTAR":-0.081602,"MEAN_MOTION_DOT":-0.00887115,"MEAN_MOTION_DDOT":0},{"OBJECT_NAME":"KUIPER-00261","OBJECT_ID":"2025-301AB","EPOCH":"2026-03-29T03:44:15.333792","MEAN_MOTION":14.76501755,"ECCENTRICITY":0.0002278,"INCLINATION":51.9043,"RA_OF_ASC_NODE":344.4228,"ARG_OF_PERICENTER":42.6515,"MEAN_ANOMALY":317.4622,"EPHEMERIS_TYPE":0,"CLASSIFICATION_TYPE":"U","NORAD_CAT_ID":67158,"ELEMENT_SET_NO":999,"REV_AT_EPOCH":1654,"BSTAR":0.00062784,"MEAN_MOTION_DOT":4.201e-5,"MEAN_MOTION_DDOT":0},{"OBJECT_NAME":"KUIPER-00265","OBJECT_ID":"2025-301AC","EPOCH":"2026-03-29T01:15:08.840160","MEAN_MOTION":14.79959918,"ECCENTRICITY":0.0001189,"INCLINATION":51.9043,"RA_OF_ASC_NODE":359.9962,"ARG_OF_PERICENTER":94.8813,"MEAN_ANOMALY":265.2286,"EPHEMERIS_TYPE":0,"CLASSIFICATION_TYPE":"U","NORAD_CAT_ID":67159,"ELEMENT_SET_NO":999,"REV_AT_EPOCH":1635,"BSTAR":0.00078298,"MEAN_MOTION_DOT":5.756e-5,"MEAN_MOTION_DDOT":0},{"OBJECT_NAME":"KUIPER-00159","OBJECT_ID":"2026-030A","EPOCH":"2026-03-29T02:00:56.737728","MEAN_MOTION":15.36437673,"ECCENTRICITY":0.0005991,"INCLINATION":51.8854,"RA_OF_ASC_NODE":125.5847,"ARG_OF_PERICENTER":95.0451,"MEAN_ANOMALY":265.1219,"EPHEMERIS_TYPE":0,"CLASSIFICATION_TYPE":"U","NORAD_CAT_ID":67764,"ELEMENT_SET_NO":999,"REV_AT_EPOCH":807,"BSTAR":0.00023537,"MEAN_MOTION_DOT":8.12e-5,"MEAN_MOTION_DDOT":0},{"OBJECT_NAME":"KUIPER-00160","OBJECT_ID":"2026-030B","EPOCH":"2026-03-28T19:52:05.412288","MEAN_MOTION":15.36272224,"ECCENTRICITY":0.00057937,"INCLINATION":51.8826,"RA_OF_ASC_NODE":126.8486,"ARG_OF_PERICENTER":107.4961,"MEAN_ANOMALY":252.6659,"EPHEMERIS_TYPE":0,"CLASSIFICATION_TYPE":"U","NORAD_CAT_ID":67765,"ELEMENT_SET_NO":999,"REV_AT_EPOCH":803,"BSTAR":0.00080896634,"MEAN_MOTION_DOT":0.00028783,"MEAN_MOTION_DDOT":0},{"OBJECT_NAME":"KUIPER-00177","OBJECT_ID":"2026-030C","EPOCH":"2026-03-29T04:00:01.999584","MEAN_MOTION":14.97776085,"ECCENTRICITY":0.0005458,"INCLINATION":51.8974,"RA_OF_ASC_NODE":127.4675,"ARG_OF_PERICENTER":97.9464,"MEAN_ANOMALY":221.5992,"EPHEMERIS_TYPE":0,"CLASSIFICATION_TYPE":"U","NORAD_CAT_ID":67766,"ELEMENT_SET_NO":999,"REV_AT_EPOCH":578,"BSTAR":-1.9586e-5,"MEAN_MOTION_DOT":-4.94e-6,"MEAN_MOTION_DDOT":0},{"OBJECT_NAME":"KUIPER-00178","OBJECT_ID":"2026-030D","EPOCH":"2026-03-29T04:00:01.999584","MEAN_MOTION":15.11460295,"ECCENTRICITY":0.0008541,"INCLINATION":51.8867,"RA_OF_ASC_NODE":126.7618,"ARG_OF_PERICENTER":108.4756,"MEAN_ANOMALY":317.7336,"EPHEMERIS_TYPE":0,"CLASSIFICATION_TYPE":"U","NORAD_CAT_ID":67767,"ELEMENT_SET_NO":999,"REV_AT_EPOCH":379,"BSTAR":9.6392e-5,"MEAN_MOTION_DOT":1.352e-5,"MEAN_MOTION_DDOT":0},{"OBJECT_NAME":"KUIPER-00180","OBJECT_ID":"2026-030E","EPOCH":"2026-03-29T01:52:05.502144","MEAN_MOTION":15.28839278,"ECCENTRICITY":0.0016988,"INCLINATION":51.8814,"RA_OF_ASC_NODE":126.9878,"ARG_OF_PERICENTER":126.5298,"MEAN_ANOMALY":233.7252,"EPHEMERIS_TYPE":0,"CLASSIFICATION_TYPE":"U","NORAD_CAT_ID":67768,"ELEMENT_SET_NO":999,"REV_AT_EPOCH":805,"BSTAR":-0.0014196,"MEAN_MOTION_DOT":-0.00040683,"MEAN_MOTION_DDOT":0},{"OBJECT_NAME":"KUIPER-00197","OBJECT_ID":"2026-030F","EPOCH":"2026-03-28T19:21:11.593152","MEAN_MOTION":15.37002751,"ECCENTRICITY":0.00026715,"INCLINATION":51.8836,"RA_OF_ASC_NODE":126.7206,"ARG_OF_PERICENTER":78.897,"MEAN_ANOMALY":281.2317,"EPHEMERIS_TYPE":0,"CLASSIFICATION_TYPE":"U","NORAD_CAT_ID":67769,"ELEMENT_SET_NO":999,"REV_AT_EPOCH":803,"BSTAR":0.00085246287,"MEAN_MOTION_DOT":0.0003108,"MEAN_MOTION_DDOT":0},{"OBJECT_NAME":"KUIPER-00198","OBJECT_ID":"2026-030G","EPOCH":"2026-03-29T01:48:51.980832","MEAN_MOTION":15.36714489,"ECCENTRICITY":0.0004472,"INCLINATION":51.8814,"RA_OF_ASC_NODE":125.5155,"ARG_OF_PERICENTER":90.3569,"MEAN_ANOMALY":269.793,"EPHEMERIS_TYPE":0,"CLASSIFICATION_TYPE":"U","NORAD_CAT_ID":67770,"ELEMENT_SET_NO":999,"REV_AT_EPOCH":807,"BSTAR":0.0010223,"MEAN_MOTION_DOT":0.00037036,"MEAN_MOTION_DDOT":0},{"OBJECT_NAME":"KUIPER-00199","OBJECT_ID":"2026-030H","EPOCH":"2026-03-29T02:59:52.180800","MEAN_MOTION":15.34889276,"ECCENTRICITY":0.0011664,"INCLINATION":51.8808,"RA_OF_ASC_NODE":125.8291,"ARG_OF_PERICENTER":121.0256,"MEAN_ANOMALY":239.1876,"EPHEMERIS_TYPE":0,"CLASSIFICATION_TYPE":"U","NORAD_CAT_ID":67771,"ELEMENT_SET_NO":999,"REV_AT_EPOCH":807,"BSTAR":0.0011671,"MEAN_MOTION_DOT":0.0004,"MEAN_MOTION_DDOT":0},{"OBJECT_NAME":"KUIPER-00200","OBJECT_ID":"2026-030J","EPOCH":"2026-03-29T02:41:42.624096","MEAN_MOTION":15.37693296,"ECCENTRICITY":0.0001761,"INCLINATION":51.8806,"RA_OF_ASC_NODE":125.018,"ARG_OF_PERICENTER":19.2309,"MEAN_ANOMALY":340.8744,"EPHEMERIS_TYPE":0,"CLASSIFICATION_TYPE":"U","NORAD_CAT_ID":67772,"ELEMENT_SET_NO":999,"REV_AT_EPOCH":808,"BSTAR":0.00099771,"MEAN_MOTION_DOT":0.00037301,"MEAN_MOTION_DDOT":0}]
